{"type": "FeatureCollection", "features": [{"type": "Feature", "geometry": {"type": "Polygon", "coordinates": [[[9.618057733956062, 44.149448483826326], [9.618051, 44.149394], [9.61805, 44.149305], [9.618063, 44.149253], [9.618033, 44.149212], [9.617956, 44.149203], [9.617844, 44.149225], [9.617758, 44.14918], [9.618002, 44.149103], [9.618088, 44.149091], [9.618136, 44.149009], [9.618267, 44.148835], [9.618304, 44.148639], [9.618297, 44.148532], [9.61824, 44.14848], [9.6181, 44.148388], [9.617921, 44.148303], [9.617811, 44.148279], [9.617736, 44.148334], [9.617656, 44.148356], [9.617547, 44.148304], [9.617523, 44.148249], [9.61766, 44.148108], [9.617887, 44.147978], [9.61798, 44.147963], [9.618134, 44.147993], [9.618294, 44.148095], [9.618417, 44.148151], [9.618582, 44.148079], [9.618812, 44.147985], [9.618921, 44.147949], [9.619016, 44.1479], [9.619069, 44.147838], [9.619104, 44.147743], [9.61909, 44.14769], [9.619063, 44.147645], [9.619062, 44.147554], [9.61921, 44.147449], [9.619252, 44.147374], [9.619308, 44.147302], [9.619333, 44.147207], [9.619333, 44.147169], [9.619299, 44.147135], [9.619299, 44.147071], [9.619463, 44.14698], [9.619585, 44.146912], [9.619578, 44.146865], [9.619492, 44.146834], [9.619458, 44.146811], [9.619474, 44.14678], [9.61952, 44.146729], [9.619497, 44.146679], [9.619423, 44.146636], [9.619274, 44.146644], [9.619218, 44.146634], [9.619438, 44.146478], [9.619754, 44.146284], [9.61983, 44.146298], [9.620155, 44.14606], [9.620191, 44.146], [9.620194, 44.145955], [9.620144, 44.145927], [9.620027, 44.145873], [9.619938, 44.14584], [9.619884, 44.145807], [9.620358, 44.145502], [9.620499, 44.145386], [9.620505, 44.145336], [9.620508, 44.145296], [9.620563, 44.145248], [9.620705, 44.145197], [9.620977, 44.145006], [9.62118, 44.144853], [9.62139, 44.144642], [9.621458, 44.144544], [9.62144, 44.144479], [9.621407, 44.144427], [9.621492, 44.14436], [9.62159, 44.144264], [9.621616, 44.144214], [9.621625, 44.144159], [9.621595, 44.144131], [9.621651, 44.144052], [9.621664, 44.144018], [9.62168, 44.14397], [9.621616, 44.143899], [9.621543, 44.143871], [9.621417, 44.14386], [9.621374, 44.143801], [9.621379, 44.143727], [9.621385, 44.143671], [9.621355, 44.143633], [9.621374, 44.143552], [9.62143, 44.1435], [9.621436, 44.143428], [9.621402, 44.143357], [9.621441, 44.14328], [9.621507, 44.143244], [9.621463, 44.143193], [9.62167, 44.143028], [9.621719, 44.142968], [9.621738, 44.142889], [9.621971, 44.142717], [9.62197, 44.142678], [9.621937, 44.142667], [9.62193, 44.142629], [9.622088, 44.142525], [9.622145, 44.142589], [9.62226, 44.142565], [9.622376, 44.142519], [9.622497, 44.142456], [9.62259, 44.142492], [9.622624, 44.142544], [9.622642, 44.142656], [9.622695, 44.142663], [9.622728, 44.142653], [9.62281, 44.142607], [9.622915, 44.142576], [9.622955, 44.142518], [9.622974, 44.142482], [9.623083, 44.142439], [9.623185, 44.142415], [9.623304, 44.142366], [9.623543, 44.142267], [9.623835, 44.142063], [9.623951, 44.142021], [9.624122, 44.141944], [9.624253, 44.141844], [9.624398, 44.141745], [9.624661, 44.141574], [9.624782, 44.141447], [9.624919, 44.141337], [9.624928, 44.141244], [9.624937, 44.141167], [9.625104, 44.141002], [9.625481, 44.140742], [9.625675, 44.140653], [9.625791, 44.140647], [9.625903, 44.140596], [9.625946, 44.140544], [9.626193, 44.14044], [9.626259, 44.140437], [9.62648, 44.14045], [9.626582, 44.140376], [9.626652, 44.140388], [9.626791, 44.140451], [9.626831, 44.140437], [9.626877, 44.140374], [9.626965, 44.140302], [9.627064, 44.140242], [9.627185, 44.140149], [9.627214, 44.140094], [9.627191, 44.140073], [9.6272, 44.140001], [9.627197, 44.139975], [9.627137, 44.139975], [9.627001, 44.13995], [9.626881, 44.139893], [9.626864, 44.139848], [9.626953, 44.139776], [9.626992, 44.139735], [9.626992, 44.139709], [9.626922, 44.139693], [9.626988, 44.139628], [9.627106, 44.139566], [9.627135, 44.139513], [9.627198, 44.139479], [9.627174, 44.139451], [9.627117, 44.139417], [9.62713, 44.139378], [9.627179, 44.139342], [9.627307, 44.139261], [9.627381, 44.13931], [9.62742, 44.139301], [9.627482, 44.139238], [9.627558, 44.13924], [9.627576, 44.139369], [9.627619, 44.13935], [9.627764, 44.139282], [9.628014, 44.139152], [9.628139, 44.139132], [9.628216, 44.139141], [9.628456, 44.139075], [9.62863, 44.139017], [9.628782, 44.13893], [9.628758, 44.138906], [9.628725, 44.138878], [9.628856, 44.138803], [9.629004, 44.138738], [9.629304, 44.138622], [9.629426, 44.138543], [9.629511, 44.138461], [9.629708, 44.138353], [9.62986, 44.138298], [9.630061, 44.138211], [9.630087, 44.138158], [9.630033, 44.138149], [9.629848, 44.138162], [9.629617, 44.138194], [9.629452, 44.138214], [9.629382, 44.138191], [9.629428, 44.138136], [9.629867, 44.137835], [9.630018, 44.137748], [9.630104, 44.137745], [9.630217, 44.13773], [9.630256, 44.137692], [9.630298, 44.137635], [9.630361, 44.137575], [9.630433, 44.137503], [9.630485, 44.137431], [9.630418, 44.137386], [9.630332, 44.137377], [9.630168, 44.137459], [9.630078, 44.137472], [9.630025, 44.13741], [9.630014, 44.137336], [9.630152, 44.137221], [9.630245, 44.137235], [9.630321, 44.137237], [9.630377, 44.137205], [9.630429, 44.13716], [9.630656, 44.137096], [9.630925, 44.136934], [9.631014, 44.136884], [9.631063, 44.136834], [9.63099, 44.136813], [9.630898, 44.136839], [9.630785, 44.136854], [9.630755, 44.136833], [9.630762, 44.136783], [9.63087, 44.136689], [9.63103, 44.13655], [9.631234, 44.136406], [9.631468, 44.136324], [9.631735, 44.13622], [9.631922, 44.136145], [9.632109, 44.136129], [9.632199, 44.136145], [9.632372, 44.136308], [9.632429, 44.136337], [9.632475, 44.136322], [9.632501, 44.136277], [9.632626, 44.136219], [9.632853, 44.136101], [9.632968, 44.136067], [9.633094, 44.136035], [9.633229, 44.135963], [9.63335, 44.135912], [9.633439, 44.135833], [9.633498, 44.135764], [9.633529, 44.135621], [9.633723, 44.135481], [9.633821, 44.135369], [9.63379, 44.135307], [9.633764, 44.135264], [9.633792, 44.135165], [9.633851, 44.135044], [9.633873, 44.134989], [9.633918, 44.134857], [9.633907, 44.134788], [9.633867, 44.13477], [9.633778, 44.134761], [9.633731, 44.13472], [9.63371, 44.134623], [9.63371, 44.134549], [9.633712, 44.134504], [9.633679, 44.134461], [9.633576, 44.134469], [9.633491, 44.134495], [9.633405, 44.134496], [9.633391, 44.134427], [9.633443, 44.134348], [9.633996, 44.133979], [9.634108, 44.133912], [9.63417, 44.133842], [9.634279, 44.133816], [9.634385, 44.133803], [9.634458, 44.133834], [9.634515, 44.133893], [9.634578, 44.133931], [9.634651, 44.133928], [9.634805, 44.133841], [9.634914, 44.133793], [9.635084, 44.133668], [9.635206, 44.133565], [9.635373, 44.133481], [9.635511, 44.133496], [9.635515, 44.133497], [9.635521, 44.133497], [9.635581, 44.133501], [9.635634, 44.133451], [9.635702, 44.133384], [9.635769, 44.133427], [9.635796, 44.133479], [9.63587, 44.133564], [9.635884, 44.133648], [9.635964, 44.133747], [9.636069, 44.133933], [9.63614, 44.134058], [9.636147, 44.13417], [9.636107, 44.134379], [9.636072, 44.134503], [9.63604, 44.13462], [9.63605, 44.134672], [9.636077, 44.134698], [9.636173, 44.134726], [9.63628, 44.134776], [9.636327, 44.134909], [9.636388, 44.135021], [9.636492, 44.135156], [9.636599, 44.13526], [9.636802, 44.135352], [9.637083, 44.135416], [9.637232, 44.135443], [9.637355, 44.135474], [9.637467, 44.135504], [9.637521, 44.135554], [9.637604, 44.135627], [9.63782, 44.135726], [9.637954, 44.135811], [9.638104, 44.135941], [9.638168, 44.136036], [9.638268, 44.13614], [9.638358, 44.13624], [9.638716, 44.136482], [9.638836, 44.1366], [9.638996, 44.136731], [9.639163, 44.136883], [9.63921, 44.13694], [9.639298, 44.137065], [9.639382, 44.13722], [9.639521, 44.137552], [9.639586, 44.137766], [9.639613, 44.137919], [9.639631, 44.138074], [9.639635, 44.138136], [9.639627, 44.138206], [9.639628, 44.138269], [9.639646, 44.138389], [9.63967, 44.138462], [9.639695, 44.138522], [9.639734, 44.138568], [9.63976, 44.138621], [9.639793, 44.138705], [9.639828, 44.138753], [9.639893, 44.138817], [9.639948, 44.138876], [9.639985, 44.138914], [9.640022, 44.138967], [9.640111, 44.139078], [9.640155, 44.139134], [9.64022, 44.139223], [9.640261, 44.139319], [9.640265, 44.139367], [9.640265, 44.139398], [9.640279, 44.139425], [9.640339, 44.139515], [9.640355, 44.139569], [9.64043, 44.139669], [9.640493, 44.139748], [9.640538, 44.139774], [9.640577, 44.1398], [9.640584, 44.139834], [9.640581, 44.139879], [9.640629, 44.139948], [9.640739, 44.140102], [9.640805, 44.140143], [9.640862, 44.140177], [9.640897, 44.140184], [9.640907, 44.140208], [9.640864, 44.14024], [9.640813, 44.140264], [9.640887, 44.140366], [9.640988, 44.140489], [9.641073, 44.140582], [9.641101, 44.140655], [9.641127, 44.140705], [9.641169, 44.140753], [9.641219, 44.140817], [9.641263, 44.14088], [9.641301, 44.140935], [9.641317, 44.140983], [9.641351, 44.141104], [9.641382, 44.141196], [9.641419, 44.141275], [9.641492, 44.141393], [9.641542, 44.141444], [9.641575, 44.141473], [9.641622, 44.141508], [9.641638, 44.141522], [9.641718, 44.141642], [9.641807, 44.141774], [9.641895, 44.14191], [9.641933, 44.141998], [9.64197, 44.142085], [9.642046, 44.142222], [9.64213, 44.142354], [9.642195, 44.142426], [9.642282, 44.142488], [9.642325, 44.142508], [9.642237, 44.142626], [9.642226, 44.14266], [9.642136, 44.142738], [9.642146, 44.142772], [9.642184, 44.142879], [9.642224, 44.142945], [9.642278, 44.143011], [9.642363, 44.143091], [9.642456, 44.14316], [9.642561, 44.143221], [9.642691, 44.14329], [9.642772, 44.143322], [9.64269, 44.143544], [9.642649, 44.14357], [9.642582, 44.14362], [9.642589, 44.143669], [9.642693, 44.143779], [9.642762, 44.143814], [9.642822, 44.143791], [9.642912, 44.143862], [9.642981, 44.143864], [9.643149, 44.14393], [9.643232, 44.143866], [9.64328, 44.143905], [9.643303, 44.143932], [9.643323, 44.143979], [9.643345, 44.144011], [9.643376, 44.144056], [9.643401, 44.144075], [9.643, 44.144666666666666], [9.649, 44.14183333333333], [9.638666666666667, 44.13016666666667], [9.627833333333333, 44.13016666666667], [9.614333333333333, 44.1465], [9.618057733956062, 44.149448483826326]]]}, "properties": {"zone": "B", "name": "Zona B \u2014 Punta Mesco (riserva generale)", "source": "Decreto Ministeriale 20 luglio 2011, n. 189 (G.U. Serie Generale n. 266 del 15/11/2011), Allegato \u2014 Art. 4"}}, {"type": "Feature", "geometry": {"type": "Polygon", "coordinates": [[[9.739666666666666, 44.0965], [9.739309343237666, 44.09647339080848], [9.739316, 44.096384], [9.739344, 44.096229], [9.739317, 44.096153], [9.739331, 44.096105], [9.739381, 44.096031], [9.739456, 44.095951], [9.739416, 44.095892], [9.739327, 44.095892], [9.73928, 44.095871], [9.73921, 44.095817], [9.739147, 44.095786], [9.739021, 44.095751], [9.73895, 44.095668], [9.738969, 44.095597], [9.739031, 44.095542], [9.739103, 44.095467], [9.739059, 44.095396], [9.73895, 44.095382], [9.73888, 44.095323], [9.738879, 44.095238], [9.738852, 44.095204], [9.738802, 44.095212], [9.738749, 44.095141], [9.738771, 44.095074], [9.738707, 44.095015], [9.738673, 44.094929], [9.738633, 44.094846], [9.738592, 44.094768], [9.738617, 44.094629], [9.738719, 44.094586], [9.738917, 44.094551], [9.739048, 44.094508], [9.739145, 44.09434], [9.739161, 44.094256], [9.73915, 44.094199], [9.73905, 44.094126], [9.738983, 44.094035], [9.738936, 44.09395], [9.738915, 44.093866], [9.738814, 44.093762], [9.738731, 44.093706], [9.738602, 44.093723], [9.738483, 44.093729], [9.738411, 44.093729], [9.738386, 44.093617], [9.738451, 44.093533], [9.738503, 44.093445], [9.738538, 44.093359], [9.73853, 44.093261], [9.738492, 44.093128], [9.738455, 44.093039], [9.738424, 44.092937], [9.738419, 44.092799], [9.738417, 44.092654], [9.738457, 44.092512], [9.738464, 44.092484], [9.738471, 44.092473], [9.738603, 44.092245], [9.738735, 44.092229], [9.738867, 44.092217], [9.738937, 44.0923], [9.739007, 44.092316], [9.739045, 44.092177], [9.739181, 44.092003], [9.739272, 44.091859], [9.739314, 44.091752], [9.739428, 44.091653], [9.739598, 44.0915], [9.739697, 44.091454], [9.739744, 44.091534], [9.739808, 44.091641], [9.739911, 44.091702], [9.739879, 44.091786], [9.739844, 44.091865], [9.739772, 44.091951], [9.739809, 44.092006], [9.739843, 44.092072], [9.739897, 44.092158], [9.739984, 44.092186], [9.740051, 44.092278], [9.740133, 44.092239], [9.740228, 44.092155], [9.74031, 44.092088], [9.740402, 44.092045], [9.740522, 44.091931], [9.740577, 44.091829], [9.740644, 44.091709], [9.740776, 44.091627], [9.74093, 44.091529], [9.741012, 44.091507], [9.741039, 44.091571], [9.741045, 44.091737], [9.740981, 44.0919], [9.740991, 44.091947], [9.741074, 44.091983], [9.741154, 44.092011], [9.741253, 44.091998], [9.74131, 44.091952], [9.741329, 44.0919], [9.741345, 44.091847], [9.741398, 44.091799], [9.741578, 44.091734], [9.741856, 44.091701], [9.741928, 44.091694], [9.742074, 44.091693], [9.742236, 44.091725], [9.742276, 44.09176], [9.742297, 44.091832], [9.742327, 44.091862], [9.742298, 44.091917], [9.742309, 44.092001], [9.74235, 44.092101], [9.742354, 44.092158], [9.742437, 44.092176], [9.742529, 44.092157], [9.742664, 44.092077], [9.742831, 44.091985], [9.742913, 44.091937], [9.743048, 44.091879], [9.743147, 44.091864], [9.743197, 44.091885], [9.743283, 44.091899], [9.743352, 44.091906], [9.743432, 44.091922], [9.743482, 44.091988], [9.743529, 44.092043], [9.743556, 44.092093], [9.74358, 44.092147], [9.743564, 44.09219], [9.743574, 44.092238], [9.743617, 44.092233], [9.743703, 44.092208], [9.743821, 44.092162], [9.743933, 44.092128], [9.744144, 44.092058], [9.744431, 44.091973], [9.744723, 44.091854], [9.745029, 44.091759], [9.745237, 44.091693], [9.745326, 44.091693], [9.745483, 44.09172], [9.745555, 44.091724], [9.745737, 44.091737], [9.745826, 44.091689], [9.745832, 44.091637], [9.745798, 44.091599], [9.74584, 44.091522], [9.745897, 44.091558], [9.746009, 44.091564], [9.746137, 44.091482], [9.746163, 44.09143], [9.746215, 44.091332], [9.746274, 44.091286], [9.746366, 44.091271], [9.746433, 44.091349], [9.746444, 44.09144], [9.746468, 44.091499], [9.746568, 44.091548], [9.746686, 44.091498], [9.746811, 44.091406], [9.746906, 44.091341], [9.746955, 44.091298], [9.747046, 44.091243], [9.747103, 44.091235], [9.747183, 44.091297], [9.74722, 44.091361], [9.747279, 44.091351], [9.747338, 44.091312], [9.7474, 44.091262], [9.747462, 44.091207], [9.747584, 44.091149], [9.747727, 44.091193], [9.747852, 44.091273], [9.747958, 44.091361], [9.748065, 44.091384], [9.748151525307799, 44.09135354309166], [9.7385, 44.084], [9.727833333333333, 44.091166666666666], [9.7345, 44.0965], [9.739666666666666, 44.0965]]]}, "properties": {"zone": "B", "name": "Zona B \u2014 Capo Montenegro (riserva generale)", "source": "Decreto Ministeriale 20 luglio 2011, n. 189 (G.U. Serie Generale n. 266 del 15/11/2011), Allegato \u2014 Art. 4"}}, {"type": "Feature", "geometry": {"type": "Polygon", "coordinates": [[[9.623666666666667, 44.14416666666666], [9.622915, 44.142576], [9.622955, 44.142518], [9.622974, 44.142482], [9.623083, 44.142439], [9.623185, 44.142415], [9.623304, 44.142366], [9.623543, 44.142267], [9.623835, 44.142063], [9.623951, 44.142021], [9.624122, 44.141944], [9.624253, 44.141844], [9.624398, 44.141745], [9.624661, 44.141574], [9.624782, 44.141447], [9.624919, 44.141337], [9.624928, 44.141244], [9.624937, 44.141167], [9.625104, 44.141002], [9.625481, 44.140742], [9.625675, 44.140653], [9.625791, 44.140647], [9.625903, 44.140596], [9.625946, 44.140544], [9.626193, 44.14044], [9.626259, 44.140437], [9.62648, 44.14045], [9.626582, 44.140376], [9.626652, 44.140388], [9.626791, 44.140451], [9.626831, 44.140437], [9.626877, 44.140374], [9.626965, 44.140302], [9.627064, 44.140242], [9.627185, 44.140149], [9.627214, 44.140094], [9.627191, 44.140073], [9.6272, 44.140001], [9.627197, 44.139975], [9.627137, 44.139975], [9.627001, 44.13995], [9.626881, 44.139893], [9.626864, 44.139848], [9.626953, 44.139776], [9.626992, 44.139735], [9.626992, 44.139709], [9.626922, 44.139693], [9.626988, 44.139628], [9.627106, 44.139566], [9.627135, 44.139513], [9.627198, 44.139479], [9.627174, 44.139451], [9.627117, 44.139417], [9.62713, 44.139378], [9.627179, 44.139342], [9.627307, 44.139261], [9.627381, 44.13931], [9.62742, 44.139301], [9.627482, 44.139238], [9.627558, 44.13924], [9.627576, 44.139369], [9.627619, 44.13935], [9.627764, 44.139282], [9.628014, 44.139152], [9.628139, 44.139132], [9.628216, 44.139141], [9.628456, 44.139075], [9.62863, 44.139017], [9.628782, 44.13893], [9.628758, 44.138906], [9.628725, 44.138878], [9.628856, 44.138803], [9.629004, 44.138738], [9.629304, 44.138622], [9.629426, 44.138543], [9.629511, 44.138461], [9.629708, 44.138353], [9.62986, 44.138298], [9.630061, 44.138211], [9.630087, 44.138158], [9.630033, 44.138149], [9.629848, 44.138162], [9.629617, 44.138194], [9.629452, 44.138214], [9.629382, 44.138191], [9.629428, 44.138136], [9.629867, 44.137835], [9.630018, 44.137748], [9.630104, 44.137745], [9.630217, 44.13773], [9.630256, 44.137692], [9.630298, 44.137635], [9.630361, 44.137575], [9.630433, 44.137503], [9.630485, 44.137431], [9.630418, 44.137386], [9.630332, 44.137377], [9.630168, 44.137459], [9.630078, 44.137472], [9.630025, 44.13741], [9.630014, 44.137336], [9.630152, 44.137221], [9.630245, 44.137235], [9.630321, 44.137237], [9.630377, 44.137205], [9.630429, 44.13716], [9.630656, 44.137096], [9.630925, 44.136934], [9.631014, 44.136884], [9.631063, 44.136834], [9.63099, 44.136813], [9.630898, 44.136839], [9.630785, 44.136854], [9.630755, 44.136833], [9.630762, 44.136783], [9.63087, 44.136689], [9.63103, 44.13655], [9.631234, 44.136406], [9.631468, 44.136324], [9.631735, 44.13622], [9.631922, 44.136145], [9.632109, 44.136129], [9.632199, 44.136145], [9.632372, 44.136308], [9.632429, 44.136337], [9.632475, 44.136322], [9.632501, 44.136277], [9.632626, 44.136219], [9.632853, 44.136101], [9.632968, 44.136067], [9.633094, 44.136035], [9.633229, 44.135963], [9.63335, 44.135912], [9.633439, 44.135833], [9.633498, 44.135764], [9.633529, 44.135621], [9.633723, 44.135481], [9.633821, 44.135369], [9.63379, 44.135307], [9.633764, 44.135264], [9.633792, 44.135165], [9.633851, 44.135044], [9.633873, 44.134989], [9.633918, 44.134857], [9.633907, 44.134788], [9.633867, 44.13477], [9.633778, 44.134761], [9.633731, 44.13472], [9.63371, 44.134623], [9.63371, 44.134549], [9.633712, 44.134504], [9.633679, 44.134461], [9.633576, 44.134469], [9.633491, 44.134495], [9.633405, 44.134496], [9.633391, 44.134427], [9.633443, 44.134348], [9.633996, 44.133979], [9.634108, 44.133912], [9.63417, 44.133842], [9.634279, 44.133816], [9.634385, 44.133803], [9.634458, 44.133834], [9.634515, 44.133893], [9.634578, 44.133931], [9.634651, 44.133928], [9.634805, 44.133841], [9.634914, 44.133793], [9.635084, 44.133668], [9.635206, 44.133565], [9.635373, 44.133481], [9.635511, 44.133496], [9.635515, 44.133497], [9.635521, 44.133497], [9.635581, 44.133501], [9.635634, 44.133451], [9.635702, 44.133384], [9.635769, 44.133427], [9.635796, 44.133479], [9.63587, 44.133564], [9.635884, 44.133648], [9.635964, 44.133747], [9.636069, 44.133933], [9.63614, 44.134058], [9.636147, 44.13417], [9.636107, 44.134379], [9.636072, 44.134503], [9.63604, 44.13462], [9.63605, 44.134672], [9.636077, 44.134698], [9.636173, 44.134726], [9.63628, 44.134776], [9.636327, 44.134909], [9.636388, 44.135021], [9.636492, 44.135156], [9.636599, 44.13526], [9.636802, 44.135352], [9.637083, 44.135416], [9.637232, 44.135443], [9.637355, 44.135474], [9.637467, 44.135504], [9.637521, 44.135554], [9.637604, 44.135627], [9.63782, 44.135726], [9.637954, 44.135811], [9.638104, 44.135941], [9.638168, 44.136036], [9.638268, 44.13614], [9.638358, 44.13624], [9.638716, 44.136482], [9.638836, 44.1366], [9.638996, 44.136731], [9.639163, 44.136883], [9.63921, 44.13694], [9.639298, 44.137065], [9.639382, 44.13722], [9.639423279095222, 44.13731859467348], [9.6425, 44.136], [9.638166666666667, 44.13133333333333], [9.626333333333333, 44.134166666666665], [9.620666666666667, 44.141], [9.623666666666667, 44.14416666666666]]]}, "properties": {"zone": "A", "name": "Zona A \u2014 Punta Mesco (riserva integrale)", "source": "Decreto Ministeriale 20 luglio 2011, n. 189 (G.U. Serie Generale n. 266 del 15/11/2011), Allegato \u2014 Art. 4"}}, {"type": "Feature", "geometry": {"type": "Polygon", "coordinates": [[[9.738448745257454, 44.093535913821135], [9.738451, 44.093533], [9.738503, 44.093445], [9.738538, 44.093359], [9.73853, 44.093261], [9.738492, 44.093128], [9.738455, 44.093039], [9.738424, 44.092937], [9.738419, 44.092799], [9.738417, 44.092654], [9.738457, 44.092512], [9.738464, 44.092484], [9.738471, 44.092473], [9.738603, 44.092245], [9.738735, 44.092229], [9.738867, 44.092217], [9.738937, 44.0923], [9.739007, 44.092316], [9.739045, 44.092177], [9.739181, 44.092003], [9.739272, 44.091859], [9.739314, 44.091752], [9.739428, 44.091653], [9.739598, 44.0915], [9.739697, 44.091454], [9.739744, 44.091534], [9.739808, 44.091641], [9.739911, 44.091702], [9.739879, 44.091786], [9.739844, 44.091865], [9.739772, 44.091951], [9.739809, 44.092006], [9.739843, 44.092072], [9.739897, 44.092158], [9.739984, 44.092186], [9.740051, 44.092278], [9.740133, 44.092239], [9.740228, 44.092155], [9.74031, 44.092088], [9.740402, 44.092045], [9.740522, 44.091931], [9.740577, 44.091829], [9.740644, 44.091709], [9.740776, 44.091627], [9.74093, 44.091529], [9.740934195263627, 44.09152787444147], [9.741333333333333, 44.089], [9.736166666666668, 44.092166666666664], [9.738448745257454, 44.093535913821135]]]}, "properties": {"zone": "A", "name": "Zona A \u2014 Capo Monte Negro (riserva integrale)", "source": "Decreto Ministeriale 20 luglio 2011, n. 189 (G.U. Serie Generale n. 266 del 15/11/2011), Allegato \u2014 Art. 4"}}]}