{"type": "FeatureCollection", "features": [{"type": "Feature", "geometry": {"type": "LineString", "coordinates": [[9.60889, 44.16614], [9.608890346192894, 44.16613864670051], [9.601820966956131, 44.15526951807854], [9.63243554514481, 44.12947374332768], [9.655083401082296, 44.13687265407616], [9.65448, 44.1446], [9.651689229518297, 44.136913328395636], [9.679141543801435, 44.127713689006576], [9.68176, 44.13518], [9.678836618644798, 44.128696392960634], [9.70208258552985, 44.11283348407658], [9.715604209039034, 44.10887435095429], [9.717491586809727, 44.105190028404834], [9.72657, 44.10579], [9.721961143328047, 44.099376220260275], [9.736648230790687, 44.09620933389006], [9.73776, 44.09776]]}, "properties": {"note": "Tracciato indicativo lungo la costa reale (Regione Liguria), non il track GPS esatto del traghetto."}}]}