{"type": "FeatureCollection", "features": [{"type": "Feature", "geometry": {"type": "Point", "coordinates": [9.635214567337371, 44.13166475100508]}, "properties": {"depth_m": 51.0, "base_depth_m": 55.0, "height_m": 4.0, "source": "regione_liguria_isobate"}}, {"type": "Feature", "geometry": {"type": "Point", "coordinates": [9.802203410081095, 44.06144693916667]}, "properties": {"depth_m": 26.0, "base_depth_m": 27.0, "height_m": 1.0, "source": "regione_liguria_isobate"}}, {"type": "Feature", "geometry": {"type": "Point", "coordinates": [9.708654057790534, 44.11507324478793]}, "properties": {"depth_m": 20.0, "base_depth_m": 21.0, "height_m": 1.0, "source": "regione_liguria_isobate"}}, {"type": "Feature", "geometry": {"type": "Point", "coordinates": [9.801326045620128, 44.06148049426775]}, "properties": {"depth_m": 27.0, "base_depth_m": 28.0, "height_m": 1.0, "source": "regione_liguria_isobate"}}, {"type": "Feature", "geometry": {"type": "Point", "coordinates": [9.75876472865289, 44.08275206769613]}, "properties": {"depth_m": 14.0, "base_depth_m": 19.5, "height_m": 5.5, "source": "regione_liguria_isobate"}}, {"type": "Feature", "geometry": {"type": "Point", "coordinates": [9.58553636584854, 44.1708544553983]}, "properties": {"depth_m": 23.0, "base_depth_m": 27.1, "height_m": 4.1, "source": "regione_liguria_isobate"}}, {"type": "Feature", "geometry": {"type": "Point", "coordinates": [9.634701098424017, 44.13193261020481]}, "properties": {"depth_m": 49.0, "base_depth_m": 53.0, "height_m": 4.0, "source": "regione_liguria_isobate"}}, {"type": "Feature", "geometry": {"type": "Point", "coordinates": [9.635079749877958, 44.13274684943248]}, "properties": {"depth_m": 24.0, "base_depth_m": 39.0, "height_m": 15.0, "source": "regione_liguria_isobate"}}, {"type": "Feature", "geometry": {"type": "Point", "coordinates": [9.635704600608959, 44.132936083842566]}, "properties": {"depth_m": 18.0, "base_depth_m": 27.0, "height_m": 9.0, "source": "regione_liguria_isobate"}}, {"type": "Feature", "geometry": {"type": "Point", "coordinates": [9.698572877665336, 44.12266325697853]}, "properties": {"depth_m": 15.0, "base_depth_m": 16.0, "height_m": 1.0, "source": "regione_liguria_isobate"}}, {"type": "Feature", "geometry": {"type": "Point", "coordinates": [9.72290582355625, 44.10794160214473]}, "properties": {"depth_m": 14.0, "base_depth_m": 15.0, "height_m": 1.0, "source": "regione_liguria_isobate"}}, {"type": "Feature", "geometry": {"type": "Point", "coordinates": [9.796638518535802, 44.06374175708033]}, "properties": {"depth_m": 14.0, "base_depth_m": 15.1, "height_m": 1.1, "source": "regione_liguria_isobate"}}, {"type": "Feature", "geometry": {"type": "Point", "coordinates": [9.772736195692916, 44.07429602171866]}, "properties": {"depth_m": 22.0, "base_depth_m": 24.3, "height_m": 2.3, "source": "regione_liguria_isobate"}}, {"type": "Feature", "geometry": {"type": "Point", "coordinates": [9.672386005667148, 44.13702637358812]}, "properties": {"depth_m": 21.0, "base_depth_m": 22.0, "height_m": 1.0, "source": "regione_liguria_isobate"}}, {"type": "Feature", "geometry": {"type": "Point", "coordinates": [9.720722832439519, 44.11256920070496]}, "properties": {"depth_m": 10.0, "base_depth_m": 11.0, "height_m": 1.0, "source": "regione_liguria_isobate"}}, {"type": "Feature", "geometry": {"type": "Point", "coordinates": [9.696432363672395, 44.12672340035299]}, "properties": {"depth_m": 13.0, "base_depth_m": 14.0, "height_m": 1.0, "source": "regione_liguria_isobate"}}, {"type": "Feature", "geometry": {"type": "Point", "coordinates": [9.617305157580597, 44.14780277929408]}, "properties": {"depth_m": 10.0, "base_depth_m": 16.6, "height_m": 6.6, "source": "regione_liguria_isobate"}}, {"type": "Feature", "geometry": {"type": "Point", "coordinates": [9.584710171003353, 44.171600607902086]}, "properties": {"depth_m": 17.0, "base_depth_m": 24.0, "height_m": 7.0, "source": "regione_liguria_isobate"}}, {"type": "Feature", "geometry": {"type": "Point", "coordinates": [9.584112541143153, 44.17223542263528]}, "properties": {"depth_m": 21.0, "base_depth_m": 22.9, "height_m": 1.9, "source": "regione_liguria_isobate"}}, {"type": "Feature", "geometry": {"type": "Point", "coordinates": [9.59202167042054, 44.172258149088485]}, "properties": {"depth_m": 5.0, "base_depth_m": 14.3, "height_m": 9.3, "source": "regione_liguria_isobate"}}, {"type": "Feature", "geometry": {"type": "Point", "coordinates": [9.808377387200576, 44.0619054748634]}, "properties": {"depth_m": 15.0, "base_depth_m": 17.2, "height_m": 2.2, "source": "regione_liguria_isobate"}}, {"type": "Feature", "geometry": {"type": "Point", "coordinates": [9.783921326221519, 44.06993210737552]}, "properties": {"depth_m": 23.0, "base_depth_m": 24.7, "height_m": 1.7, "source": "regione_liguria_isobate"}}, {"type": "Feature", "geometry": {"type": "Point", "coordinates": [9.548187880312812, 44.206011848653134]}, "properties": {"depth_m": 5.0, "base_depth_m": 6.0, "height_m": 1.0, "source": "regione_liguria_isobate"}}, {"type": "Feature", "geometry": {"type": "Point", "coordinates": [9.556657305225023, 44.19855195206006]}, "properties": {"depth_m": 9.0, "base_depth_m": 17.7, "height_m": 8.7, "source": "regione_liguria_isobate"}}, {"type": "Feature", "geometry": {"type": "Point", "coordinates": [9.781557341901332, 44.0711487803677]}, "properties": {"depth_m": 13.0, "base_depth_m": 14.0, "height_m": 1.0, "source": "regione_liguria_isobate"}}, {"type": "Feature", "geometry": {"type": "Point", "coordinates": [9.642699078591964, 44.141393055620846]}, "properties": {"depth_m": 8.0, "base_depth_m": 9.0, "height_m": 1.0, "source": "regione_liguria_isobate"}}, {"type": "Feature", "geometry": {"type": "Point", "coordinates": [9.553384950023734, 44.20123643964847]}, "properties": {"depth_m": 8.0, "base_depth_m": 11.7, "height_m": 3.7, "source": "regione_liguria_isobate"}}, {"type": "Feature", "geometry": {"type": "Point", "coordinates": [9.5954126594577, 44.16861354879646]}, "properties": {"depth_m": 7.0, "base_depth_m": 16.8, "height_m": 9.8, "source": "regione_liguria_isobate"}}, {"type": "Feature", "geometry": {"type": "Point", "coordinates": [9.59403105598342, 44.16709508692557]}, "properties": {"depth_m": 27.0, "base_depth_m": 28.0, "height_m": 1.0, "source": "regione_liguria_isobate"}}, {"type": "Feature", "geometry": {"type": "Point", "coordinates": [9.58606832458885, 44.17299136223314]}, "properties": {"depth_m": 19.0, "base_depth_m": 20.0, "height_m": 1.0, "source": "regione_liguria_isobate"}}, {"type": "Feature", "geometry": {"type": "Point", "coordinates": [9.574619608116121, 44.1797033515513]}, "properties": {"depth_m": 12.0, "base_depth_m": 21.5, "height_m": 9.5, "source": "regione_liguria_isobate"}}, {"type": "Feature", "geometry": {"type": "Point", "coordinates": [9.561932181444526, 44.18497847541174]}, "properties": {"depth_m": 36.0, "base_depth_m": 39.4, "height_m": 3.4, "source": "regione_liguria_isobate"}}, {"type": "Feature", "geometry": {"type": "Point", "coordinates": [9.5731152666695, 44.179165709304534]}, "properties": {"depth_m": 29.0, "base_depth_m": 30.9, "height_m": 1.9, "source": "regione_liguria_isobate"}}, {"type": "Feature", "geometry": {"type": "Point", "coordinates": [9.596849974940444, 44.170004095397026]}, "properties": {"depth_m": 14.0, "base_depth_m": 15.0, "height_m": 1.0, "source": "regione_liguria_isobate"}}, {"type": "Feature", "geometry": {"type": "Point", "coordinates": [9.564540365262772, 44.18510743565337]}, "properties": {"depth_m": 28.0, "base_depth_m": 29.4, "height_m": 1.4, "source": "regione_liguria_isobate"}}, {"type": "Feature", "geometry": {"type": "Point", "coordinates": [9.702482202178265, 44.120408233171524]}, "properties": {"depth_m": 11.0, "base_depth_m": 14.4, "height_m": 3.4, "source": "regione_liguria_isobate"}}, {"type": "Feature", "geometry": {"type": "Point", "coordinates": [9.782397743960825, 44.0713782064914]}, "properties": {"depth_m": 5.0, "base_depth_m": 10.6, "height_m": 5.6, "source": "regione_liguria_isobate"}}, {"type": "Feature", "geometry": {"type": "Point", "coordinates": [9.564981493443808, 44.18657036514501]}, "properties": {"depth_m": 24.0, "base_depth_m": 25.0, "height_m": 1.0, "source": "regione_liguria_isobate"}}, {"type": "Feature", "geometry": {"type": "Point", "coordinates": [9.75781935643327, 44.084050796821835]}, "properties": {"depth_m": 11.0, "base_depth_m": 16.4, "height_m": 5.4, "source": "regione_liguria_isobate"}}, {"type": "Feature", "geometry": {"type": "Point", "coordinates": [9.773202961566076, 44.075244058382275]}, "properties": {"depth_m": 9.0, "base_depth_m": 17.9, "height_m": 8.9, "source": "regione_liguria_isobate"}}, {"type": "Feature", "geometry": {"type": "Point", "coordinates": [9.632756829046672, 44.1340164389127]}, "properties": {"depth_m": 14.0, "base_depth_m": 29.9, "height_m": 15.9, "source": "regione_liguria_isobate"}}, {"type": "Feature", "geometry": {"type": "Point", "coordinates": [9.5973514847293, 44.16968547613701]}, "properties": {"depth_m": 14.0, "base_depth_m": 15.0, "height_m": 1.0, "source": "regione_liguria_isobate"}}, {"type": "Feature", "geometry": {"type": "Point", "coordinates": [9.599188445554333, 44.17146810047925]}, "properties": {"depth_m": 3.0, "base_depth_m": 7.8, "height_m": 4.8, "source": "regione_liguria_isobate"}}, {"type": "Feature", "geometry": {"type": "Point", "coordinates": [9.597887222177151, 44.17171705910109]}, "properties": {"depth_m": 8.0, "base_depth_m": 10.1, "height_m": 2.1, "source": "regione_liguria_isobate"}}, {"type": "Feature", "geometry": {"type": "Point", "coordinates": [9.570755648246985, 44.18063112931938]}, "properties": {"depth_m": 23.0, "base_depth_m": 24.0, "height_m": 1.0, "source": "regione_liguria_isobate"}}, {"type": "Feature", "geometry": {"type": "Point", "coordinates": [9.56443722177458, 44.18623703208057]}, "properties": {"depth_m": 15.0, "base_depth_m": 27.7, "height_m": 12.7, "source": "regione_liguria_isobate"}}, {"type": "Feature", "geometry": {"type": "Point", "coordinates": [9.599730872222766, 44.17132874828292]}, "properties": {"depth_m": 3.0, "base_depth_m": 9.0, "height_m": 6.0, "source": "regione_liguria_isobate"}}, {"type": "Feature", "geometry": {"type": "Point", "coordinates": [9.59497693168029, 44.16866557894775]}, "properties": {"depth_m": 8.0, "base_depth_m": 16.8, "height_m": 8.8, "source": "regione_liguria_isobate"}}, {"type": "Feature", "geometry": {"type": "Point", "coordinates": [9.81338303010783, 44.0613214146413]}, "properties": {"depth_m": 6.0, "base_depth_m": 9.7, "height_m": 3.7, "source": "regione_liguria_isobate"}}, {"type": "Feature", "geometry": {"type": "Point", "coordinates": [9.66516198531715, 44.142153648252844]}, "properties": {"depth_m": 8.0, "base_depth_m": 14.4, "height_m": 6.4, "source": "regione_liguria_isobate"}}, {"type": "Feature", "geometry": {"type": "Point", "coordinates": [9.765593871528408, 44.08082767244136]}, "properties": {"depth_m": 6.0, "base_depth_m": 18.3, "height_m": 12.3, "source": "regione_liguria_isobate"}}, {"type": "Feature", "geometry": {"type": "Point", "coordinates": [9.729155082188747, 44.10351396458042]}, "properties": {"depth_m": 5.0, "base_depth_m": 13.4, "height_m": 8.4, "source": "regione_liguria_isobate"}}, {"type": "Feature", "geometry": {"type": "Point", "coordinates": [9.596717321923888, 44.16906437492711]}, "properties": {"depth_m": 9.0, "base_depth_m": 16.8, "height_m": 7.8, "source": "regione_liguria_isobate"}}, {"type": "Feature", "geometry": {"type": "Point", "coordinates": [9.765584644718256, 44.08043688318909]}, "properties": {"depth_m": 7.0, "base_depth_m": 18.3, "height_m": 11.3, "source": "regione_liguria_isobate"}}, {"type": "Feature", "geometry": {"type": "Point", "coordinates": [9.736304584848718, 44.09852881706961]}, "properties": {"depth_m": 5.0, "base_depth_m": 13.2, "height_m": 8.2, "source": "regione_liguria_isobate"}}, {"type": "Feature", "geometry": {"type": "Point", "coordinates": [9.596558160312638, 44.16724408014215]}, "properties": {"depth_m": 14.0, "base_depth_m": 20.1, "height_m": 6.1, "source": "regione_liguria_isobate"}}, {"type": "Feature", "geometry": {"type": "Point", "coordinates": [9.702376790242887, 44.12016531355672]}, "properties": {"depth_m": 9.0, "base_depth_m": 16.1, "height_m": 7.1, "source": "regione_liguria_isobate"}}, {"type": "Feature", "geometry": {"type": "Point", "coordinates": [9.688998845785159, 44.13026760281478]}, "properties": {"depth_m": 5.0, "base_depth_m": 10.4, "height_m": 5.4, "source": "regione_liguria_isobate"}}, {"type": "Feature", "geometry": {"type": "Point", "coordinates": [9.68544422071593, 44.13153926001627]}, "properties": {"depth_m": 4.0, "base_depth_m": 12.5, "height_m": 8.5, "source": "regione_liguria_isobate"}}, {"type": "Feature", "geometry": {"type": "Point", "coordinates": [9.626531878367372, 44.13919558181493]}, "properties": {"depth_m": 14.0, "base_depth_m": 24.2, "height_m": 10.2, "source": "regione_liguria_isobate"}}, {"type": "Feature", "geometry": {"type": "Point", "coordinates": [9.780938330674417, 44.07107642763985]}, "properties": {"depth_m": 3.0, "base_depth_m": 20.1, "height_m": 17.1, "source": "regione_liguria_isobate"}}, {"type": "Feature", "geometry": {"type": "Point", "coordinates": [9.584912263461957, 44.17533289534588]}, "properties": {"depth_m": 7.0, "base_depth_m": 15.4, "height_m": 8.4, "source": "regione_liguria_isobate"}}, {"type": "Feature", "geometry": {"type": "Point", "coordinates": [9.59477918670661, 44.168429002042714]}, "properties": {"depth_m": 8.0, "base_depth_m": 16.8, "height_m": 8.8, "source": "regione_liguria_isobate"}}, {"type": "Feature", "geometry": {"type": "Point", "coordinates": [9.535737410071942, 44.14282967032967]}, "properties": {"depth_m": 119.4, "base_depth_m": 120.4, "height_m": 1.0, "source": "emodnet"}}, {"type": "Feature", "geometry": {"type": "Point", "coordinates": [9.676564748201438, 44.137609890109886]}, "properties": {"depth_m": 6.5, "base_depth_m": 7.5, "height_m": 1.0, "source": "emodnet"}}, {"type": "Feature", "geometry": {"type": "Point", "coordinates": [9.73185251798561, 44.09480769230769]}, "properties": {"depth_m": 31.5, "base_depth_m": 32.5, "height_m": 1.0, "source": "emodnet"}}, {"type": "Feature", "geometry": {"type": "Point", "coordinates": [9.738111510791366, 44.090631868131865]}, "properties": {"depth_m": 36.3, "base_depth_m": 37.5, "height_m": 1.2, "source": "emodnet"}}, {"type": "Feature", "geometry": {"type": "Point", "coordinates": [9.743327338129495, 44.089587912087914]}, "properties": {"depth_m": 27.4, "base_depth_m": 34.2, "height_m": 6.8, "source": "emodnet"}}, {"type": "Feature", "geometry": {"type": "Point", "coordinates": [9.635881294964028, 44.0875]}, "properties": {"depth_m": 141.3, "base_depth_m": 142.3, "height_m": 1.0, "source": "emodnet"}}, {"type": "Feature", "geometry": {"type": "Point", "coordinates": [9.643183453237409, 44.0875]}, "properties": {"depth_m": 136.7, "base_depth_m": 137.7, "height_m": 1.0, "source": "emodnet"}}, {"type": "Feature", "geometry": {"type": "Point", "coordinates": [9.65048561151079, 44.08541208791209]}, "properties": {"depth_m": 140.5, "base_depth_m": 141.5, "height_m": 1.0, "source": "emodnet"}}, {"type": "Feature", "geometry": {"type": "Point", "coordinates": [9.658830935251798, 44.08019230769231]}, "properties": {"depth_m": 146.1, "base_depth_m": 147.1, "height_m": 1.0, "source": "emodnet"}}, {"type": "Feature", "geometry": {"type": "Point", "coordinates": [9.770449640287769, 44.08019230769231]}, "properties": {"depth_m": 17.9, "base_depth_m": 19.6, "height_m": 1.7, "source": "emodnet"}}, {"type": "Feature", "geometry": {"type": "Point", "coordinates": [9.664046762589928, 44.07810439560439]}, "properties": {"depth_m": 123.2, "base_depth_m": 124.2, "height_m": 1.0, "source": "emodnet"}}, {"type": "Feature", "geometry": {"type": "Point", "coordinates": [9.778794964028776, 44.07392857142857]}, "properties": {"depth_m": 16.8, "base_depth_m": 24.7, "height_m": 7.9, "source": "emodnet"}}, {"type": "Feature", "geometry": {"type": "Point", "coordinates": [9.667176258992805, 44.06975274725275]}, "properties": {"depth_m": 145.2, "base_depth_m": 146.2, "height_m": 1.0, "source": "emodnet"}}, {"type": "Feature", "geometry": {"type": "Point", "coordinates": [9.670305755395683, 44.06870879120879]}, "properties": {"depth_m": 129.5, "base_depth_m": 130.5, "height_m": 1.0, "source": "emodnet"}}, {"type": "Feature", "geometry": {"type": "Point", "coordinates": [9.67134892086331, 44.06453296703297]}, "properties": {"depth_m": 133.5, "base_depth_m": 134.5, "height_m": 1.0, "source": "emodnet"}}]}