{"type": "FeatureCollection", "features": [{"type": "Feature", "geometry": {"type": "Point", "coordinates": [9.5373333, 44.0881667]}, "properties": {"wreck_id": "82397", "name": "Zatterone 2", "category": "Non-dangerous wreck", "vessel_type": null, "depth_m": 400.0, "year_sunk": null, "removed": false, "circumstance": null, "source": "UKHO Worldwide Wrecks (EMODnet Human Activities)"}}, {"type": "Feature", "geometry": {"type": "Point", "coordinates": [9.647, 44.1313333]}, "properties": {"wreck_id": "88018", "name": "Zatterone 12", "category": "Non-dangerous wreck", "vessel_type": null, "depth_m": 45.0, "year_sunk": null, "removed": false, "circumstance": null, "source": "UKHO Worldwide Wrecks (EMODnet Human Activities)"}}, {"type": "Feature", "geometry": {"type": "Point", "coordinates": [9.6123333, 44.1191667]}, "properties": {"wreck_id": "86948", "name": "Zatterone 8", "category": "Non-dangerous wreck", "vessel_type": null, "depth_m": 87.0, "year_sunk": null, "removed": false, "circumstance": null, "source": "UKHO Worldwide Wrecks (EMODnet Human Activities)"}}, {"type": "Feature", "geometry": {"type": "Point", "coordinates": [9.6446667, 44.1243333]}, "properties": {"wreck_id": "36168", "name": "Zatterone 10", "category": "Non-dangerous wreck", "vessel_type": null, "depth_m": 51.0, "year_sunk": null, "removed": false, "circumstance": null, "source": "UKHO Worldwide Wrecks (EMODnet Human Activities)"}}, {"type": "Feature", "geometry": {"type": "Point", "coordinates": [9.6573333, 44.04]}, "properties": {"wreck_id": "36435", "name": "Zatterone 13", "category": "Non-dangerous wreck", "vessel_type": null, "depth_m": 135.0, "year_sunk": null, "removed": true, "circumstance": null, "source": "UKHO Worldwide Wrecks (EMODnet Human Activities)"}}, {"type": "Feature", "geometry": {"type": "Point", "coordinates": [9.56465, 44.1719167]}, "properties": {"wreck_id": "36166", "name": "BOLZANETO", "category": "Non-dangerous wreck", "vessel_type": null, "depth_m": 40.0, "year_sunk": "1943", "removed": false, "circumstance": "BUILT IN 1918 BY N ODERO & CO. OWNED AT TIME OF LOSS BY SOC. ANON. ILVA. TORPEDOED BY BRITISH SUBMARINE. (DODS).", "source": "UKHO Worldwide Wrecks (EMODnet Human Activities)"}}, {"type": "Feature", "geometry": {"type": "Point", "coordinates": [9.6455556, 44.1255556]}, "properties": {"wreck_id": "61837", "name": "Zatterone 11", "category": "Non-dangerous wreck", "vessel_type": null, "depth_m": 50.0, "year_sunk": null, "removed": true, "circumstance": null, "source": "UKHO Worldwide Wrecks (EMODnet Human Activities)"}}, {"type": "Feature", "geometry": {"type": "Point", "coordinates": [9.6026833, 44.1553833]}, "properties": {"wreck_id": "36167", "name": "Zatterone 7", "category": "Dangerous wreck", "vessel_type": null, "depth_m": 40.0, "year_sunk": null, "removed": false, "circumstance": null, "source": "UKHO Worldwide Wrecks (EMODnet Human Activities)"}}, {"type": "Feature", "geometry": {"type": "Point", "coordinates": [9.575, 44.1666667]}, "properties": {"wreck_id": "61836", "name": "Zatterone 5", "category": "Non-dangerous wreck", "vessel_type": null, "depth_m": 50.0, "year_sunk": null, "removed": true, "circumstance": null, "source": "UKHO Worldwide Wrecks (EMODnet Human Activities)"}}, {"type": "Feature", "geometry": {"type": "Point", "coordinates": [9.5307, 44.1873167]}, "properties": {"wreck_id": "36165", "name": "Zatterone 1", "category": "Non-dangerous wreck", "vessel_type": null, "depth_m": 60.0, "year_sunk": null, "removed": false, "circumstance": null, "source": "UKHO Worldwide Wrecks (EMODnet Human Activities)"}}, {"type": "Feature", "geometry": {"type": "Point", "coordinates": [9.6013333, 44.1489667]}, "properties": {"wreck_id": "36433", "name": "Zatterone 6", "category": "Dangerous wreck", "vessel_type": null, "depth_m": 50.0, "year_sunk": null, "removed": false, "circumstance": null, "source": "UKHO Worldwide Wrecks (EMODnet Human Activities)"}}, {"type": "Feature", "geometry": {"type": "Point", "coordinates": [9.5599167, 44.18775]}, "properties": {"wreck_id": "67220", "name": "Zatterone 3", "category": "Dangerous wreck", "vessel_type": null, "depth_m": 35.0, "year_sunk": null, "removed": false, "circumstance": null, "source": "UKHO Worldwide Wrecks (EMODnet Human Activities)"}}, {"type": "Feature", "geometry": {"type": "Point", "coordinates": [9.533, 44.134]}, "properties": {"wreck_id": "36480", "name": "RONDINE", "category": "Non-dangerous wreck", "vessel_type": "trawler", "depth_m": 120.0, "year_sunk": "1993", "removed": true, "circumstance": "PASSAGE GENOA FOR CIVITAVECCHIA. REPORTED SERIOUS LEAK IN AFTER SECTION OF HULL. WAS ABANDONED BY CREW AND SANK. (LL).", "source": "UKHO Worldwide Wrecks (EMODnet Human Activities)"}}, {"type": "Feature", "geometry": {"type": "Point", "coordinates": [9.5666667, 44.0833333]}, "properties": {"wreck_id": "36413", "name": "Zatterone 4", "category": "Non-dangerous wreck", "vessel_type": null, "depth_m": 370.0, "year_sunk": null, "removed": false, "circumstance": null, "source": "UKHO Worldwide Wrecks (EMODnet Human Activities)"}}, {"type": "Feature", "geometry": {"type": "Point", "coordinates": [9.6446167, 44.1164167]}, "properties": {"wreck_id": "35855", "name": "Zatterone 9", "category": "Non-dangerous wreck", "vessel_type": null, "depth_m": 60.0, "year_sunk": null, "removed": false, "circumstance": null, "source": "UKHO Worldwide Wrecks (EMODnet Human Activities)"}}, {"type": "Feature", "geometry": {"type": "Point", "coordinates": [9.79975, 44.0499667]}, "properties": {"wreck_id": "36434", "name": "Zatterone 15", "category": "Non-dangerous wreck", "vessel_type": null, "depth_m": 25.0, "year_sunk": null, "removed": false, "circumstance": null, "source": "UKHO Worldwide Wrecks (EMODnet Human Activities)"}}, {"type": "Feature", "geometry": {"type": "Point", "coordinates": [9.69975, 44.1006833]}, "properties": {"wreck_id": "36536", "name": "Spiaggione di Corniglia", "category": "Non-dangerous wreck", "vessel_type": null, "depth_m": 44.0, "year_sunk": null, "removed": false, "circumstance": null, "source": "UKHO Worldwide Wrecks (EMODnet Human Activities)"}}, {"type": "Feature", "geometry": {"type": "Point", "coordinates": [9.7513333, 44.0613333]}, "properties": {"wreck_id": "36169", "name": "Zatterone 14", "category": "Non-dangerous wreck", "vessel_type": null, "depth_m": 34.0, "year_sunk": null, "removed": false, "circumstance": null, "source": "UKHO Worldwide Wrecks (EMODnet Human Activities)"}}]}